IRIDIUM 39              
1 25042U 97069D   25318.77952382  .00001344  00000+0  34518-3 0  9991
2 25042  86.3908 146.6241 0018384 157.2131 202.9893 14.49442535470776
IRIDIUM 38              
1 25043U 97069E   25318.87113838  .00000819  00000+0  26298-3 0  9990
2 25043  86.3983 169.8252 0001928  28.6356 331.4947 14.38276771467617
IRIDIUM 42              
1 25077U 97077A   25318.85381601  .00000527  00000+0  17295-3 0  9992
2 25077  86.3996 176.1825 0002067  64.0934 296.0476 14.36499230462822
IRIDIUM 44              
1 25078U 97077B   25318.81824543  .00000826  00000+0  25416-3 0  9992
2 25078  86.3969 157.7391 0000551 145.5821 214.5414 14.40397944465387
IRIDIUM 45              
1 25104U 97082A   25318.09805517  .00045012  00000+0  13288-2 0  9997
2 25104  86.3550 334.7726 0104610 126.5062 234.5879 15.29432451474893
IRIDIUM 24              
1 25105U 97082B   25318.45743273  .00001019  00000+0  30299-3 0  9999
2 25105  86.3941  16.5494 0009471 307.8249  52.2093 14.42289632464870
IRIDIUM 51              
1 25262U 98018A   25318.78556758  .00085487  00000+0  11130-2 0  9992
2 25262  86.3770 340.5295 0061262  29.4867 330.9827 15.56173285470298
IRIDIUM 57              
1 25273U 98019B   25318.83033841  .00000846  00000+0  28452-3 0  9996
2 25273  86.3942  82.0944 0001949  90.7688 269.3732 14.36019355446408
